[Satellite]
VERSION=1.1
NAME=NEE-01 PEGASUS
NICKNAME=NEE-01 PEGASUS
TLE1=1 39151U 13018B   17186.22468434  .00000106  00000-0  21108-4 0  9991
TLE2=2 39151  97.9839 277.6302 0016918 356.8686   3.2417 14.79725381226206
